[{"OBJECT_NAME":"STARLINK-31676","OBJECT_ID":"2024-100R","EPOCH":"2026-03-09T05:12:36.074016","MEAN_MOTION":15.27566795,"ECCENTRICITY":0.00012829,"INCLINATION":42.999,"RA_OF_ASC_NODE":128.1434,"ARG_OF_PERICENTER":163.6464,"MEAN_ANOMALY":196.443,"EPHEMERIS_TYPE":0,"CLASSIFICATION_TYPE":"U","NORAD_CAT_ID":59900,"ELEMENT_SET_NO":999,"REV_AT_EPOCH":10097,"BSTAR":2.6887241e-5,"MEAN_MOTION_DOT":4.78e-6,"MEAN_MOTION_DDOT":0},{"OBJECT_NAME":"ION SCV-017","OBJECT_ID":"2025-052W","EPOCH":"2026-03-09T17:11:44.577024","MEAN_MOTION":15.26881798,"ECCENTRICITY":0.0023746,"INCLINATION":97.4016,"RA_OF_ASC_NODE":324.7516,"ARG_OF_PERICENTER":44.9875,"MEAN_ANOMALY":315.3282,"EPHEMERIS_TYPE":0,"CLASSIFICATION_TYPE":"U","NORAD_CAT_ID":63230,"ELEMENT_SET_NO":999,"REV_AT_EPOCH":5485,"BSTAR":0.00024539061,"MEAN_MOTION_DOT":6.457e-5,"MEAN_MOTION_DDOT":0}]
